STARLINK-30494          
1 57970U 23151G   26068.36049035 -.00001272  00000+0 -35691-4 0  9993
2 57970  43.0027 192.4566 0001155 241.5536 118.5200 15.28417441137406
STARLINK-32776          
1 63032U 25034D   26068.89625645  .00037400  00000+0  12685-2 0  9992
2 63032  53.1580 257.5021 0001079  88.4513 271.6611 15.30199928 59113
